*******************************************************************************
Ephemeris / WWW_USER Mon Jul 15 19:22:12 2024 Pasadena, USA      / Horizons    
*******************************************************************************
Target body name: (2019 AS11)                     {source: JPL#3}
Center body name: Earth (399)                     {source: DE441}
Center-site name: Gemini South Obs., Cerro Pachon
*******************************************************************************
Start time      : A.D. 2018-Oct-04 22:54:00.0000 UT      
Stop  time      : A.D. 2018-Oct-05 10:08:00.0000 UT      
Step-size       : 1 minutes
*******************************************************************************
Target pole/equ : undefined
Target radii    : undefined                                                    
Center geodetic : 289.2634, -30.2406227, 2.71233  {E-lon(deg),Lat(deg),Alt(km)}
Center cylindric: 289.2634,5517.21435,-3194.81213 {E-lon(deg),Dxy(km),Dz(km)}
Center pole/equ : ITRF93                          {East-longitude positive}
Center radii    : 6378.137, 6378.137, 6356.752 km {Equator_a, b, pole_c}       
Target primary  : Sun
Vis. interferer : MOON (R_eq= 1737.400) km        {source: DE441}
Rel. light bend : Sun                             {source: DE441}
Rel. lght bnd GM: 1.3271E+11 km^3/s^2                                          
Small-body perts: Yes                             {source: SB441-N16}
Atmos refraction: NO (AIRLESS)
RA format       : HMS
Time format     : CAL 
Calendar mode   : Mixed Julian/Gregorian
RTS-only print  : NO       
EOP file        : eop.240715.p241008                                           
EOP coverage    : DATA-BASED 1962-JAN-20 TO 2024-JUL-15. PREDICTS-> 2024-OCT-07
Units conversion: 1 au= 149597870.700 km, c= 299792.458 km/s, 1 day= 86400.0 s 
Table cut-offs 1: Elevation (-90.0deg=NO ),Airmass (>38.000=NO), Daylight (YES)
Table cut-offs 2: Solar elongation (  0.0,180.0=NO ),Local Hour Angle( 0.0=NO )
Table cut-offs 3: RA/DEC angular rate (     0.0=NO )                           
*******************************************************************************
Initial IAU76/J2000 heliocentric ecliptic osculating elements (au, days, deg.):
  EPOCH=  2458497.5 ! 2019-Jan-14.00 (TDB)         Residual RMS= .087899       
   EC= .1148313279028816   QR= .9946661968961306   TP= 2458526.093433633       
   OM= 299.8828960483019   W=  203.050931799211    IN= 7.281527766683049       
  Equivalent ICRF heliocentric cartesian coordinates (au, au/d):
   X=-3.982431103506237E-01  Y= 8.438985356712057E-01  Z= 3.820551439764541E-01
  VX=-1.601846206933958E-02 VY=-6.309373484980013E-03 VZ=-5.215303828559489E-03
Asteroid physical parameters (km, seconds, rotational period in hours):        
   GM= n.a.                RAD= n.a.               ROTPER= n.a.                
   H= 26.8                 G= .150                 B-V= n.a.                   
                           ALBEDO= n.a.            STYP= n.a.                  
*******************************************************************************
 Date__(UT)__HR:MN     R.A._________(ICRF)_________DEC
******************************************************
$$SOE
 2018-Oct-05 03:00     04 21 09.118033 +49 33 18.97764
 2018-Oct-05 03:01     04 21 09.224395 +49 33 20.19522
 2018-Oct-05 03:02     04 21 09.330712 +49 33 21.41273
 2018-Oct-05 03:03     04 21 09.436983 +49 33 22.63015
 2018-Oct-05 03:04     04 21 09.543208 +49 33 23.84750
 2018-Oct-05 03:05     04 21 09.649389 +49 33 25.06476
 2018-Oct-05 03:06     04 21 09.755523 +49 33 26.28195
 2018-Oct-05 03:07     04 21 09.861613 +49 33 27.49905
 2018-Oct-05 03:08     04 21 09.967657 +49 33 28.71607
 2018-Oct-05 03:09     04 21 10.073656 +49 33 29.93300
 2018-Oct-05 03:10     04 21 10.179610 +49 33 31.14985
 2018-Oct-05 03:11     04 21 10.285518 +49 33 32.36660
 2018-Oct-05 03:12     04 21 10.391382 +49 33 33.58327
 2018-Oct-05 03:13     04 21 10.497200 +49 33 34.79984
 2018-Oct-05 03:14     04 21 10.602974 +49 33 36.01632
 2018-Oct-05 03:15     04 21 10.708703 +49 33 37.23271
 2018-Oct-05 03:16     04 21 10.814386 +49 33 38.44900
 2018-Oct-05 03:17     04 21 10.920025 +49 33 39.66519
 2018-Oct-05 03:18     04 21 11.025619 +49 33 40.88128
 2018-Oct-05 03:19     04 21 11.131169 +49 33 42.09727
 2018-Oct-05 03:20     04 21 11.236674 +49 33 43.31316
 2018-Oct-05 03:21     04 21 11.342134 +49 33 44.52895
 2018-Oct-05 03:22     04 21 11.447550 +49 33 45.74463
 2018-Oct-05 03:23     04 21 11.552921 +49 33 46.96020
 2018-Oct-05 03:24     04 21 11.658248 +49 33 48.17567
 2018-Oct-05 03:25     04 21 11.763531 +49 33 49.39103
 2018-Oct-05 03:26     04 21 11.868769 +49 33 50.60628
 2018-Oct-05 03:27     04 21 11.973963 +49 33 51.82141
 2018-Oct-05 03:28     04 21 12.079113 +49 33 53.03643
 2018-Oct-05 03:29     04 21 12.184219 +49 33 54.25134
 2018-Oct-05 03:30     04 21 12.289281 +49 33 55.46613
 2018-Oct-05 03:31     04 21 12.394298 +49 33 56.68080
 2018-Oct-05 03:32     04 21 12.499272 +49 33 57.89535
 2018-Oct-05 03:33     04 21 12.604203 +49 33 59.10978
 2018-Oct-05 03:34     04 21 12.709089 +49 34 00.32409
 2018-Oct-05 03:35     04 21 12.813932 +49 34 01.53828
 2018-Oct-05 03:36     04 21 12.918731 +49 34 02.75234
 2018-Oct-05 03:37     04 21 13.023487 +49 34 03.96628
 2018-Oct-05 03:38     04 21 13.128199 +49 34 05.18008
 2018-Oct-05 03:39     04 21 13.232868 +49 34 06.39376
 2018-Oct-05 03:40     04 21 13.337494 +49 34 07.60731
 2018-Oct-05 03:41     04 21 13.442076 +49 34 08.82072
 2018-Oct-05 03:42     04 21 13.546615 +49 34 10.03400
 2018-Oct-05 03:43     04 21 13.651111 +49 34 11.24715
 2018-Oct-05 03:44     04 21 13.755564 +49 34 12.46016
 2018-Oct-05 03:45     04 21 13.859975 +49 34 13.67303
 2018-Oct-05 03:46     04 21 13.964342 +49 34 14.88576
 2018-Oct-05 03:47     04 21 14.068667 +49 34 16.09836
 2018-Oct-05 03:48     04 21 14.172949 +49 34 17.31081
 2018-Oct-05 03:49     04 21 14.277188 +49 34 18.52311
 2018-Oct-05 03:50     04 21 14.381385 +49 34 19.73528
 2018-Oct-05 03:51     04 21 14.485539 +49 34 20.94729
 2018-Oct-05 03:52     04 21 14.589652 +49 34 22.15916
 2018-Oct-05 03:53     04 21 14.693721 +49 34 23.37088
 2018-Oct-05 03:54     04 21 14.797749 +49 34 24.58245
 2018-Oct-05 03:55     04 21 14.901735 +49 34 25.79387
 2018-Oct-05 03:56     04 21 15.005679 +49 34 27.00514
 2018-Oct-05 03:57     04 21 15.109580 +49 34 28.21625
 2018-Oct-05 03:58     04 21 15.213440 +49 34 29.42721
 2018-Oct-05 03:59     04 21 15.317259 +49 34 30.63800
 2018-Oct-05 04:00     04 21 15.421035 +49 34 31.84864
 2018-Oct-05 04:01     04 21 15.524770 +49 34 33.05913
 2018-Oct-05 04:02     04 21 15.628464 +49 34 34.26945
 2018-Oct-05 04:03     04 21 15.732116 +49 34 35.47960
 2018-Oct-05 04:04     04 21 15.835727 +49 34 36.68960
 2018-Oct-05 04:05     04 21 15.939297 +49 34 37.89942
 2018-Oct-05 04:06     04 21 16.042826 +49 34 39.10909
 2018-Oct-05 04:07     04 21 16.146314 +49 34 40.31858
 2018-Oct-05 04:08     04 21 16.249761 +49 34 41.52790
 2018-Oct-05 04:09     04 21 16.353167 +49 34 42.73706
 2018-Oct-05 04:10     04 21 16.456533 +49 34 43.94604
 2018-Oct-05 04:11     04 21 16.559858 +49 34 45.15485
 2018-Oct-05 04:12     04 21 16.663143 +49 34 46.36349
 2018-Oct-05 04:13     04 21 16.766387 +49 34 47.57195
 2018-Oct-05 04:14     04 21 16.869591 +49 34 48.78023
 2018-Oct-05 04:15     04 21 16.972755 +49 34 49.98833
 2018-Oct-05 04:16     04 21 17.075878 +49 34 51.19626
 2018-Oct-05 04:17     04 21 17.178962 +49 34 52.40400
 2018-Oct-05 04:18     04 21 17.282006 +49 34 53.61156
 2018-Oct-05 04:19     04 21 17.385010 +49 34 54.81894
 2018-Oct-05 04:20     04 21 17.487975 +49 34 56.02613
 2018-Oct-05 04:21     04 21 17.590900 +49 34 57.23314
 2018-Oct-05 04:22     04 21 17.693786 +49 34 58.43996
 2018-Oct-05 04:23     04 21 17.796632 +49 34 59.64659
 2018-Oct-05 04:24     04 21 17.899439 +49 35 00.85303
 2018-Oct-05 04:25     04 21 18.002207 +49 35 02.05928
 2018-Oct-05 04:26     04 21 18.104937 +49 35 03.26533
 2018-Oct-05 04:27     04 21 18.207627 +49 35 04.47120
 2018-Oct-05 04:28     04 21 18.310278 +49 35 05.67686
 2018-Oct-05 04:29     04 21 18.412891 +49 35 06.88233
 2018-Oct-05 04:30     04 21 18.515466 +49 35 08.08761
 2018-Oct-05 04:31     04 21 18.618002 +49 35 09.29268
 2018-Oct-05 04:32     04 21 18.720499 +49 35 10.49756
 2018-Oct-05 04:33     04 21 18.822959 +49 35 11.70223
 2018-Oct-05 04:34     04 21 18.925380 +49 35 12.90670
 2018-Oct-05 04:35     04 21 19.027764 +49 35 14.11097
 2018-Oct-05 04:36     04 21 19.130110 +49 35 15.31503
 2018-Oct-05 04:37     04 21 19.232418 +49 35 16.51889
 2018-Oct-05 04:38     04 21 19.334688 +49 35 17.72253
 2018-Oct-05 04:39     04 21 19.436921 +49 35 18.92597
 2018-Oct-05 04:40     04 21 19.539117 +49 35 20.12920
 2018-Oct-05 04:41     04 21 19.641276 +49 35 21.33222
 2018-Oct-05 04:42     04 21 19.743397 +49 35 22.53503
 2018-Oct-05 04:43  r  04 21 19.845481 +49 35 23.73762
 2018-Oct-05 04:44     04 21 19.947529 +49 35 24.93999
 2018-Oct-05 04:45     04 21 20.049540 +49 35 26.14216
 2018-Oct-05 04:46     04 21 20.151514 +49 35 27.34410
 2018-Oct-05 04:47     04 21 20.253452 +49 35 28.54583
 2018-Oct-05 04:48     04 21 20.355354 +49 35 29.74733
 2018-Oct-05 04:49     04 21 20.457219 +49 35 30.94862
 2018-Oct-05 04:50     04 21 20.559049 +49 35 32.14968
 2018-Oct-05 04:51     04 21 20.660842 +49 35 33.35052
 2018-Oct-05 04:52     04 21 20.762600 +49 35 34.55114
 2018-Oct-05 04:53     04 21 20.864321 +49 35 35.75153
 2018-Oct-05 04:54     04 21 20.966008 +49 35 36.95169
 2018-Oct-05 04:55     04 21 21.067659 +49 35 38.15163
 2018-Oct-05 04:56     04 21 21.169274 +49 35 39.35133
 2018-Oct-05 04:57     04 21 21.270855 +49 35 40.55081
 2018-Oct-05 04:58     04 21 21.372400 +49 35 41.75006
 2018-Oct-05 04:59     04 21 21.473911 +49 35 42.94907
 2018-Oct-05 05:00     04 21 21.575387 +49 35 44.14785
 2018-Oct-05 05:01     04 21 21.676828 +49 35 45.34640
 2018-Oct-05 05:02     04 21 21.778235 +49 35 46.54471
